STARLINK-33927          
1 64001U 25101H   26077.93197180  .00002703  00000+0  10774-3 0  9993
2 64001  42.9991 306.2064 0002697 277.4227  82.6319 15.27571395 48469
STARLINK-33898          
1 64002U 25101J   26077.66271356  .00018585  00000+0  68268-3 0  9998
2 64002  42.9961 307.6260 0001785 281.9279  78.1373 15.27603284 48423
STARLINK-33928          
1 64003U 25101K   26077.93567609  .00028223  00000+0  10308-2 0  9999
2 64003  43.0034 305.3725 0002606 285.2437  74.8127 15.27591733 48474
STARLINK-33758          
1 64004U 25101L   26077.90627007  .00019312  00000+0  70902-3 0  9992
2 64004  43.0019 306.0174 0002476 270.9503  89.1065 15.27599881 48465
STARLINK-33936          
1 64005U 25101M   26077.95495109  .00016221  00000+0  59738-3 0  9994
2 64005  43.0044 305.5204 0002176 288.9579  71.1037 15.27596830 48473
STARLINK-33931          
1 64006U 25101N   26077.93696313  .00015706  00000+0  57910-3 0  9990
2 64006  42.9988 305.3791 0001692 281.4512  78.6150 15.27577281 48494
STARLINK-33759          
1 64007U 25101P   26077.68569736  .00012827  00000+0  47452-3 0  9992
2 64007  43.0022 306.9332 0001843 275.8332  84.2310 15.27602757 48431
STARLINK-34163          
1 64008U 25101Q   26077.91140687  .00015058  00000+0  55550-3 0  9996
2 64008  42.9987 306.0510 0001655 263.2699  96.7964 15.27585651 48466
STARLINK-34077          
1 64009U 25101R   26077.61902714  .00020008  00000+0  73386-3 0  9999
2 64009  42.9995 307.2935 0001317 288.5927  71.4781 15.27614088 48429
STARLINK-34113          
1 64010U 25101S   26077.91912370  .00018685  00000+0  68664-3 0  9994
2 64010  43.0002 306.1109 0001506 259.8593 100.2089 15.27588203 48468
STARLINK-34193          
1 64011U 25101T   26077.91783440  .00015499  00000+0  57133-3 0  9998
2 64011  42.9998 306.0996 0001271 269.5852  90.4854 15.27592660 48461
STARLINK-34078          
1 64012U 25101U   26076.76643899  .00021563  00000+0  79014-3 0  9995
2 64012  42.9966 312.0726 0000590 268.1612  91.9173 15.27607055 48293
STARLINK-34182          
1 64013U 25101V   26077.92088023  .00024785  00000+0  90628-3 0  9990
2 64013  42.9988 302.6591 0002029 277.3015  82.7606 15.27611266 48503
STARLINK-34192          
1 64014U 25101W   26077.92682415  .00015866  00000+0  58454-3 0  9997
2 64014  43.0001 306.1634 0001821 276.3340  83.7304 15.27596462 48469
STARLINK-34093          
1 64015U 25101X   26077.94984826  .00024103  00000+0  88276-3 0  9990
2 64015  43.0015 305.4727 0002893  44.1583 315.9499 15.27570817 48472
STARLINK-34016          
1 64016U 25101Y   26077.68312726  .00022387  00000+0  81982-3 0  9995
2 64016  43.0017 306.9092 0001918 276.0451  84.0182 15.27610072 48430
