[{"OBJECT_NAME":"STARLINK-33927","OBJECT_ID":"2025-101H","EPOCH":"2026-03-18T22:22:02.363520","MEAN_MOTION":15.27571395,"ECCENTRICITY":0.00026971,"INCLINATION":42.9991,"RA_OF_ASC_NODE":306.2064,"ARG_OF_PERICENTER":277.4227,"MEAN_ANOMALY":82.6319,"EPHEMERIS_TYPE":0,"CLASSIFICATION_TYPE":"U","NORAD_CAT_ID":64001,"ELEMENT_SET_NO":999,"REV_AT_EPOCH":4846,"BSTAR":0.00010774155,"MEAN_MOTION_DOT":2.703e-5,"MEAN_MOTION_DDOT":0},{"OBJECT_NAME":"STARLINK-33898","OBJECT_ID":"2025-101J","EPOCH":"2026-03-18T15:54:18.451584","MEAN_MOTION":15.27603284,"ECCENTRICITY":0.00017853,"INCLINATION":42.9961,"RA_OF_ASC_NODE":307.626,"ARG_OF_PERICENTER":281.9279,"MEAN_ANOMALY":78.1373,"EPHEMERIS_TYPE":0,"CLASSIFICATION_TYPE":"U","NORAD_CAT_ID":64002,"ELEMENT_SET_NO":999,"REV_AT_EPOCH":4842,"BSTAR":0.00068268043,"MEAN_MOTION_DOT":0.00018585,"MEAN_MOTION_DDOT":0},{"OBJECT_NAME":"STARLINK-33928","OBJECT_ID":"2025-101K","EPOCH":"2026-03-18T22:27:22.414176","MEAN_MOTION":15.27591733,"ECCENTRICITY":0.00026069,"INCLINATION":43.0034,"RA_OF_ASC_NODE":305.3725,"ARG_OF_PERICENTER":285.2437,"MEAN_ANOMALY":74.8127,"EPHEMERIS_TYPE":0,"CLASSIFICATION_TYPE":"U","NORAD_CAT_ID":64003,"ELEMENT_SET_NO":999,"REV_AT_EPOCH":4847,"BSTAR":0.0010307812,"MEAN_MOTION_DOT":0.00028223,"MEAN_MOTION_DDOT":0},{"OBJECT_NAME":"STARLINK-33758","OBJECT_ID":"2025-101L","EPOCH":"2026-03-18T21:45:01.734048","MEAN_MOTION":15.27599881,"ECCENTRICITY":0.00024763,"INCLINATION":43.0019,"RA_OF_ASC_NODE":306.0174,"ARG_OF_PERICENTER":270.9503,"MEAN_ANOMALY":89.1065,"EPHEMERIS_TYPE":0,"CLASSIFICATION_TYPE":"U","NORAD_CAT_ID":64004,"ELEMENT_SET_NO":999,"REV_AT_EPOCH":4846,"BSTAR":0.00070902025,"MEAN_MOTION_DOT":0.00019312,"MEAN_MOTION_DDOT":0},{"OBJECT_NAME":"STARLINK-33936","OBJECT_ID":"2025-101M","EPOCH":"2026-03-18T22:55:07.774176","MEAN_MOTION":15.2759683,"ECCENTRICITY":0.00021765,"INCLINATION":43.0044,"RA_OF_ASC_NODE":305.5204,"ARG_OF_PERICENTER":288.9579,"MEAN_ANOMALY":71.1037,"EPHEMERIS_TYPE":0,"CLASSIFICATION_TYPE":"U","NORAD_CAT_ID":64005,"ELEMENT_SET_NO":999,"REV_AT_EPOCH":4847,"BSTAR":0.00059738183,"MEAN_MOTION_DOT":0.00016221,"MEAN_MOTION_DDOT":0},{"OBJECT_NAME":"STARLINK-33931","OBJECT_ID":"2025-101N","EPOCH":"2026-03-18T22:29:13.614432","MEAN_MOTION":15.27577281,"ECCENTRICITY":0.00016926,"INCLINATION":42.9988,"RA_OF_ASC_NODE":305.3791,"ARG_OF_PERICENTER":281.4512,"MEAN_ANOMALY":78.615,"EPHEMERIS_TYPE":0,"CLASSIFICATION_TYPE":"U","NORAD_CAT_ID":64006,"ELEMENT_SET_NO":999,"REV_AT_EPOCH":4849,"BSTAR":0.00057910043,"MEAN_MOTION_DOT":0.00015706,"MEAN_MOTION_DDOT":0},{"OBJECT_NAME":"STARLINK-33759","OBJECT_ID":"2025-101P","EPOCH":"2026-03-18T16:27:24.251904","MEAN_MOTION":15.27602757,"ECCENTRICITY":0.00018433,"INCLINATION":43.0022,"RA_OF_ASC_NODE":306.9332,"ARG_OF_PERICENTER":275.8332,"MEAN_ANOMALY":84.231,"EPHEMERIS_TYPE":0,"CLASSIFICATION_TYPE":"U","NORAD_CAT_ID":64007,"ELEMENT_SET_NO":999,"REV_AT_EPOCH":4843,"BSTAR":0.00047452211,"MEAN_MOTION_DOT":0.00012827,"MEAN_MOTION_DDOT":0},{"OBJECT_NAME":"STARLINK-34163","OBJECT_ID":"2025-101Q","EPOCH":"2026-03-18T21:52:25.553568","MEAN_MOTION":15.27585651,"ECCENTRICITY":0.00016551,"INCLINATION":42.9987,"RA_OF_ASC_NODE":306.051,"ARG_OF_PERICENTER":263.2699,"MEAN_ANOMALY":96.7964,"EPHEMERIS_TYPE":0,"CLASSIFICATION_TYPE":"U","NORAD_CAT_ID":64008,"ELEMENT_SET_NO":999,"REV_AT_EPOCH":4846,"BSTAR":0.00055549848,"MEAN_MOTION_DOT":0.00015058,"MEAN_MOTION_DDOT":0},{"OBJECT_NAME":"STARLINK-34077","OBJECT_ID":"2025-101R","EPOCH":"2026-03-18T14:51:23.944896","MEAN_MOTION":15.27614088,"ECCENTRICITY":0.0001317,"INCLINATION":42.9995,"RA_OF_ASC_NODE":307.2935,"ARG_OF_PERICENTER":288.5927,"MEAN_ANOMALY":71.4781,"EPHEMERIS_TYPE":0,"CLASSIFICATION_TYPE":"U","NORAD_CAT_ID":64009,"ELEMENT_SET_NO":999,"REV_AT_EPOCH":4842,"BSTAR":0.00073386,"MEAN_MOTION_DOT":0.00020008,"MEAN_MOTION_DDOT":0},{"OBJECT_NAME":"STARLINK-34113","OBJECT_ID":"2025-101S","EPOCH":"2026-03-18T22:03:32.287680","MEAN_MOTION":15.27588203,"ECCENTRICITY":0.00015065,"INCLINATION":43.0002,"RA_OF_ASC_NODE":306.1109,"ARG_OF_PERICENTER":259.8593,"MEAN_ANOMALY":100.2089,"EPHEMERIS_TYPE":0,"CLASSIFICATION_TYPE":"U","NORAD_CAT_ID":64010,"ELEMENT_SET_NO":999,"REV_AT_EPOCH":4846,"BSTAR":0.00068663631,"MEAN_MOTION_DOT":0.00018685,"MEAN_MOTION_DDOT":0},{"OBJECT_NAME":"STARLINK-34193","OBJECT_ID":"2025-101T","EPOCH":"2026-03-18T22:01:40.892160","MEAN_MOTION":15.2759266,"ECCENTRICITY":0.00012716,"INCLINATION":42.9998,"RA_OF_ASC_NODE":306.0996,"ARG_OF_PERICENTER":269.5852,"MEAN_ANOMALY":90.4854,"EPHEMERIS_TYPE":0,"CLASSIFICATION_TYPE":"U","NORAD_CAT_ID":64011,"ELEMENT_SET_NO":999,"REV_AT_EPOCH":4846,"BSTAR":0.00057133327,"MEAN_MOTION_DOT":0.00015499,"MEAN_MOTION_DDOT":0},{"OBJECT_NAME":"STARLINK-34078","OBJECT_ID":"2025-101U","EPOCH":"2026-03-17T18:23:40.328736","MEAN_MOTION":15.27607055,"ECCENTRICITY":5.9e-5,"INCLINATION":42.9966,"RA_OF_ASC_NODE":312.0726,"ARG_OF_PERICENTER":268.1612,"MEAN_ANOMALY":91.9173,"EPHEMERIS_TYPE":0,"CLASSIFICATION_TYPE":"U","NORAD_CAT_ID":64012,"ELEMENT_SET_NO":999,"REV_AT_EPOCH":4829,"BSTAR":0.00079014347,"MEAN_MOTION_DOT":0.00021563,"MEAN_MOTION_DDOT":0},{"OBJECT_NAME":"STARLINK-34182","OBJECT_ID":"2025-101V","EPOCH":"2026-03-18T22:06:04.051872","MEAN_MOTION":15.27611266,"ECCENTRICITY":0.00020297,"INCLINATION":42.9988,"RA_OF_ASC_NODE":302.6591,"ARG_OF_PERICENTER":277.3015,"MEAN_ANOMALY":82.7606,"EPHEMERIS_TYPE":0,"CLASSIFICATION_TYPE":"U","NORAD_CAT_ID":64013,"ELEMENT_SET_NO":999,"REV_AT_EPOCH":4850,"BSTAR":0.00090627728,"MEAN_MOTION_DOT":0.00024785,"MEAN_MOTION_DDOT":0},{"OBJECT_NAME":"STARLINK-34192","OBJECT_ID":"2025-101W","EPOCH":"2026-03-18T22:14:37.606560","MEAN_MOTION":15.27596462,"ECCENTRICITY":0.00018218,"INCLINATION":43.0001,"RA_OF_ASC_NODE":306.1634,"ARG_OF_PERICENTER":276.334,"MEAN_ANOMALY":83.7304,"EPHEMERIS_TYPE":0,"CLASSIFICATION_TYPE":"U","NORAD_CAT_ID":64014,"ELEMENT_SET_NO":999,"REV_AT_EPOCH":4846,"BSTAR":0.00058454439,"MEAN_MOTION_DOT":0.00015866,"MEAN_MOTION_DDOT":0},{"OBJECT_NAME":"STARLINK-34093","OBJECT_ID":"2025-101X","EPOCH":"2026-03-18T22:47:46.889664","MEAN_MOTION":15.27570817,"ECCENTRICITY":0.00028936,"INCLINATION":43.0015,"RA_OF_ASC_NODE":305.4727,"ARG_OF_PERICENTER":44.1583,"MEAN_ANOMALY":315.9499,"EPHEMERIS_TYPE":0,"CLASSIFICATION_TYPE":"U","NORAD_CAT_ID":64015,"ELEMENT_SET_NO":999,"REV_AT_EPOCH":4847,"BSTAR":0.00088275837,"MEAN_MOTION_DOT":0.00024103,"MEAN_MOTION_DDOT":0},{"OBJECT_NAME":"STARLINK-34016","OBJECT_ID":"2025-101Y","EPOCH":"2026-03-18T16:23:42.195264","MEAN_MOTION":15.27610072,"ECCENTRICITY":0.00019186,"INCLINATION":43.0017,"RA_OF_ASC_NODE":306.9092,"ARG_OF_PERICENTER":276.0451,"MEAN_ANOMALY":84.0182,"EPHEMERIS_TYPE":0,"CLASSIFICATION_TYPE":"U","NORAD_CAT_ID":64016,"ELEMENT_SET_NO":999,"REV_AT_EPOCH":4843,"BSTAR":0.00081981757,"MEAN_MOTION_DOT":0.00022387,"MEAN_MOTION_DDOT":0}]
